INTELSAT 902 (IS-902)   
1 26900U 01039A   26088.31922093 -.00000297  00000+0  00000+0 0  9990
2 26900   5.9161  72.7442 0004604 295.7986 243.0020  1.00270769 89894
INTELSAT 904 (IS-904)   
1 27380U 02007A   26090.37733984 -.00000233  00000+0  00000+0 0  9997
2 27380   6.7273  70.1056 0007230 322.5844 260.4104  1.00273546 50983
DIRECTV 5 (TEMPO 1)     
1 27426U 02023A   26090.51573462 -.00000066  00000+0  00000+0 0  9999
2 27426   4.6806  76.2636 0003618 300.3460 247.8330  1.00272144 87341
INTELSAT 905 (IS-905)   
1 27438U 02027A   26088.00322462  .00000080  00000+0  00000+0 0  9994
2 27438   6.5537  70.7516 0003091 303.9569  35.6616  1.00272596 50550
GALAXY 3C (G-3C)        
1 27445U 02030A   26090.52078713 -.00000162  00000+0  00000+0 0  9995
2 27445   3.5313  79.0478 0001370  23.2584 179.2097  1.00271414 45711
INTELSAT 906 (IS-906)   
1 27513U 02041A   26090.48100697  .00000005  00000+0  00000+0 0  9990
2 27513   5.6059  73.8628 0003321 304.9929  47.3078  1.00271321 86240
GALAXY 13 (HORIZONS-1)  
1 27954U 03044A   26090.48656080  .00000120  00000+0  00000+0 0  9993
2 27954   1.2175  84.8382 0002178 289.2840 199.8893  1.00273394 45790
INTELSAT 10-02          
1 28358U 04022A   26090.39669411 -.00000025  00000+0  00000+0 0  9996
2 28358   0.0431  42.3987 0001630  23.8319 264.3135  1.00273458 79779
DIRECTV 8               
1 28659U 05019A   26090.51602044 -.00000012  00000+0  00000+0 0  9996
2 28659   0.0195 159.6533 0003319 222.7276 233.2167  1.00273077 76298
GALAXY 28 (G-28)        
1 28702U 05022A   26090.39166742 -.00000211  00000+0  00000+0 0  9996
2 28702   3.0980  79.8824 0002270 293.3217 289.4769  1.00271542 51190
GALAXY 16 (G-16)        
1 29236U 06023A   26090.51302561 -.00000139  00000+0  00000+0 0  9995
2 29236   0.0246 220.8525 0002917 162.6484 251.0501  1.00268980 72197
DIRECTV 9S              
1 29494U 06043A   26090.54149980 -.00000124  00000+0  00000+0 0  9994
2 29494   2.2212  81.8217 0003620 302.0531 258.7777  1.00271820 50606
GALAXY 17 (G-17)        
1 31307U 07016B   26090.52278047 -.00000217  00000+0  00000+0 0  9999
2 31307   2.7764  80.8583 0003876 299.0791 272.1494  1.00272203 69028
INTELSAT 11 (IS-11)     
1 32253U 07044B   26090.56082729 -.00000140  00000+0  00000+0 0  9990
2 32253   3.3641  79.5960 0003258 217.8542 200.5881  0.99049087 67684
HORIZONS-2              
1 32388U 07063B   26090.52494715 -.00000264  00000+0  00000+0 0  9995
2 32388   2.4026  81.5711 0002706 295.4997 287.0078  1.00271729 67030
DIRECTV 11              
1 32729U 08013A   26090.52000713 -.00000139  00000+0  00000+0 0  9992
2 32729   0.0223  64.5534 0000364 264.4474 307.8892  1.00271906 44813
GALAXY 18 (G-18)        
1 32951U 08024A   26090.51524044  .00000012  00000+0  00000+0 0  9997
2 32951   0.0163 228.3268 0003014 149.8697 233.1557  1.00272553 45072
INTELSAT 25 (IS-25)     
1 33153U 08034A   26090.39080075 -.00000235  00000+0  00000+0 0  9998
2 33153   2.5077  81.2425 0003297 243.3685 333.3463  1.00271993 64919
GALAXY 19 (G-19)        
1 33376U 08045A   26088.02467122 -.00000159  00000+0  00000+0 0  9991
2 33376   0.0170 235.4768 0002779 127.6327  95.2014  1.00271910 64091
FM-5                    
1 35493U 09034A   26090.52252047 -.00000213  00000+0  00000+0 0  9999
2 35493   0.0260 257.6461 0000538 359.0132  34.1794  1.00270636 45860
INTELSAT 14 (IS-14)     
1 36097U 09064A   26090.45942689 -.00000287  00000+0  00000+0 0  9994
2 36097   0.0334  80.5889 0002475 294.4155 294.2179  1.00270680 59825
INTELSAT 15 (IS-15)     
1 36106U 09067A   26090.41385418 -.00000198  00000+0  00000+0 0  9996
2 36106   0.0159 251.2416 0002438 125.0900  46.5846  1.00269058 40444
DIRECTV 12              
1 36131U 09075A   26090.55845609 -.00000117  00000+0  00000+0 0  9992
2 36131   0.0206 324.2046 0000372  59.1332 263.9017  1.00272332 45771
INTELSAT 16 (IS-16)     
1 36397U 10006A   26090.52451382 -.00000258  00000+0  00000+0 0  9996
2 36397   0.0135 258.3845 0001898 130.4370 272.6807  1.00270269 58875
XM-5                    
1 37185U 10053A   26090.47891870 -.00000036  00000+0  00000+0 0  9992
2 37185   0.0697 269.7265 0003718 269.5072  66.8237  1.00269718 56709
INTELSAT 17 (IS-17)     
1 37238U 10065B   26090.23670767 -.00000014  00000+0  00000+0 0  9994
2 37238   0.0240 214.0596 0002007 167.3438 318.4073  1.00264996 52469
INTELSAT 28 (IS-28)     
1 37392U 11016A   26089.82029486 -.00000239  00000+0  00000+0 0  9990
2 37392   1.6043  83.5760 0004588 288.6626  79.5482  1.00270619 52505
INTELSAT 18 (IS-18)     
1 37834U 11056A   26090.29007485  .00000039  00000+0  00000+0 0  9990
2 37834   0.0175 244.9676 0001996 119.3987 108.7033  1.00270671 53038
INTELSAT 22 (IS-22)     
1 38098U 12011A   26090.55389394 -.00000072  00000+0  00000+0 0  9994
2 38098   0.0203 237.6277 0001697 142.8796  79.9189  1.00275222  6403
INTELSAT 19 (IS-19)     
1 38356U 12030A   26090.47961455  .00000000  00000+0  00000+0 0  9997
2 38356   0.0214 174.9946 0003240 210.6126 141.9108  1.00269795 49670
INTELSAT 20 (IS-20)     
1 38740U 12043A   26090.18378278 -.00000036  00000+0  00000+0 0  9991
2 38740   0.0112 169.8777 0002531  10.0560 143.2660  1.00260103 49969
INTELSAT 21 (IS-21)     
1 38749U 12045A   26090.45682688 -.00000298  00000+0  00000+0 0  9995
2 38749   0.0129 238.6482 0001692 136.2210 280.4077  1.00271418 49747
INTELSAT 23 (IS-23)     
1 38867U 12057A   26090.45778021 -.00000298  00000+0  00000+0 0  9996
2 38867   0.0135 234.2686 0000356 158.5526 267.8110  1.00274440 49178
FM-6                    
1 39360U 13058A   26090.51654044 -.00000029  00000+0  00000+0 0  9994
2 39360   0.0123 201.5855 0002732 348.4982  68.4004  1.00270916 45295
INTELSAT 30 (IS-30)     
1 40271U 14062A   26090.52078713  .00000000  00000+0  00000+0 0  9995
2 40271   0.0133 175.3081 0001151 306.9275 159.1002  1.00268122  6015
DIRECTV 14              
1 40333U 14078B   26090.51302609  .00000000  00000+0  00000+0 0  9994
2 40333   0.0179 173.3469 0000636 320.9576 140.0339  1.00270195 41260
DIRECTV 15              
1 40663U 15026A   26090.55845612 -.00000115  00000+0  00000+0 0  9992
2 40663   0.0279 100.4209 0000596  84.6685 102.0037  1.00270952 39687
SKY MEXICO-1            
1 40664U 15026B   26090.52399381  .00000000  00000+0  00000+0 0  9999
2 40664   0.0221 183.2098 0002569 213.2799 262.2480  1.00268692 39676
INTELSAT 34 (IS-34)     
1 40874U 15039A   26090.45734687 -.00000299  00000+0  00000+0 0  9991
2 40874   0.0264 270.8288 0000304 339.7663  47.3893  1.00271052 38841
INTELSAT 31 (IS-31)     
1 41581U 16035A   26090.52078713 -.00000164  00000+0  00000+0 0  9994
2 41581   0.0166 224.3385 0001843  34.7160  22.2689  1.00274463 35901
INTELSAT 36 (IS-36)     
1 41747U 16053A   26090.19664782  .00000000  00000+0  00000+0 0  9996
2 41747   0.0132 193.4266 0001457 128.1047   6.3448  1.00264135 35175
INTELSAT 32E (IS-32E)   
1 41945U 17007B   26088.17795369  .00000000  00000+0  00000+0 0  9997
2 41945   0.0241 178.4201 0000643 112.0226 277.0379  1.00270876 33420
INTELSAT 35E (IS-35E)   
1 42818U 17041A   26090.46150690 -.00000251  00000+0  00000+0 0  9991
2 42818   0.0150 237.0886 0002216 128.1507 315.2159  1.00271796 32037
INTELSAT 37E (IS-37E)   
1 42950U 17059A   26090.39340076 -.00000154  00000+0  00000+0 0  9990
2 42950   0.0209 220.8873 0001930 159.4094 292.0745  1.00271026 31280
AZERSPACE 2 (IS-38)     
1 43632U 18074A   26090.54852058  .00000123  00000+0  00000+0 0  9996
2 43632   0.0168 205.4273 0001467 169.7043  56.3562  1.00271879 27669
HORIZONS-3E             
1 43633U 18074B   26090.47961455 -.00000044  00000+0  00000+0 0  9994
2 43633   0.0024  61.8302 0000941 256.2459 212.4285  1.00271788 27562
AT&T T-16               
1 44333U 19034A   26090.53581986 -.00000128  00000+0  00000+0 0  9996
2 44333   0.0271 100.3084 0000798  86.9682  93.6484  1.00269696 24850
INTELSAT 39 (IS-39)     
1 44476U 19049B   26090.55190059  .00000000  00000+0  00000+0 0  9997
2 44476   0.0235 193.6158 0000175 344.3755 271.5616  1.00268340 24349
GALAXY 30 (G-30)        
1 46114U 20056C   26090.49697381  .00000024  00000+0  00000+0 0  9997
2 46114   0.0188 151.2453 0002243 235.4525 216.0616  1.00272795 20516
GALAXY 33 (G-33)        
1 54026U 22128A   26090.50253142  .00000065  00000+0  00000+0 0  9990
2 54026   0.0137 254.2548 0001855 103.4954 239.0284  1.00274323 12963
GALAXY 34 (G-34)        
1 54027U 22128B   26090.51402709  .00000046  00000+0  00000+0 0  9996
2 54027   0.0174 223.8818 0001462 140.9635 240.0740  1.00271075 13133
GALAXY 31 (G-31)        
1 54243U 22153A   26090.51567377  .00000000  00000+0  00000+0 0  9997
2 54243   0.0134 219.6751 0001501 158.8283 235.0144  1.00273406  6357
GALAXY 32 (G-32)        
1 54244U 22153B   26090.52156713  .00000000  00000+0  00000+0 0  9997
2 54244   0.0166 196.9594 0003066 174.1139 274.5887  1.00269145 12369
GALAXY 35 (G-35)        
1 54741U 22170A   26090.52113380 -.00000175  00000+0  00000+0 0  9995
2 54741   0.0227 126.6428 0002030 244.2674 272.4702  1.00271455 12111
GALAXY 36 (G-36)        
1 54742U 22170B   26090.52200048 -.00000198  00000+0  00000+0 0  9999
2 54742   0.0132 169.7234 0002399 241.1978 236.8780  1.00271287 11999
GALAXY 37 (G-37)        
1 57493U 23112A   26090.51446043  .00000000  00000+0  00000+0 0  9999
2 57493   0.0203 179.3264 0002123 197.3528 230.4175  1.00271097  9761
